{
    "links": {
        "self": "http://www.neowsapp.com/rest/v1/neo/54054650?api_key=iIulBulltgU6a56xZRHN4H3l9WmuAYTsLGpBGhQ2"
    },
    "id": "54054650",
    "neo_reference_id": "54054650",
    "name": "(2020 SZ4)",
    "designation": "2020 SZ4",
    "nasa_jpl_url": "http://ssd.jpl.nasa.gov/sbdb.cgi?sstr=54054650",
    "absolute_magnitude_h": 23.102,
    "estimated_diameter": {
        "kilometers": {
            "estimated_diameter_min": 0.06370228,
            "estimated_diameter_max": 0.1424426284
        },
        "meters": {
            "estimated_diameter_min": 63.7022799917,
            "estimated_diameter_max": 142.4426283831
        },
        "miles": {
            "estimated_diameter_min": 0.0395827494,
            "estimated_diameter_max": 0.0885097184
        },
        "feet": {
            "estimated_diameter_min": 208.9969882879,
            "estimated_diameter_max": 467.3314729045
        }
    },
    "is_potentially_hazardous_asteroid": false,
    "close_approach_data": [
        {
            "close_approach_date": "2020-06-03",
            "close_approach_date_full": "2020-Jun-03 16:41",
            "epoch_date_close_approach": 1591202460000,
            "relative_velocity": {
                "kilometers_per_second": "9.1415931915",
                "kilometers_per_hour": "32909.7354893079",
                "miles_per_hour": "20448.8298100091"
            },
            "miss_distance": {
                "astronomical": "0.2901806738",
                "lunar": "112.8802821082",
                "kilometers": "43410410.715644806",
                "miles": "26973978.4187020828"
            },
            "orbiting_body": "Earth"
        },
        {
            "close_approach_date": "2020-08-27",
            "close_approach_date_full": "2020-Aug-27 21:12",
            "epoch_date_close_approach": 1598562720000,
            "relative_velocity": {
                "kilometers_per_second": "6.7130862541",
                "kilometers_per_hour": "24167.1105147314",
                "miles_per_hour": "15016.5026417785"
            },
            "miss_distance": {
                "astronomical": "0.3008921829",
                "lunar": "117.0470591481",
                "kilometers": "45012829.661490423",
                "miles": "27969675.3805689174"
            },
            "orbiting_body": "Earth"
        }
    ],
    "orbital_data": {
        "orbit_id": "1",
        "orbit_determination_date": "2020-09-26 04:42:07",
        "first_observation_date": "2020-09-22",
        "last_observation_date": "2020-09-26",
        "data_arc_in_days": 4,
        "observations_used": 13,
        "orbit_uncertainty": "9",
        "minimum_orbit_intersection": ".274066",
        "jupiter_tisserand_invariant": "4.096",
        "epoch_osculation": "2459115.5",
        "eccentricity": ".3422818837015574",
        "semi_major_axis": "1.701482745874033",
        "inclination": "15.03818969273416",
        "ascending_node_longitude": "204.9682701521127",
        "orbital_period": "810.661879026389",
        "perihelion_distance": "1.119096026530571",
        "perihelion_argument": "87.36596015009086",
        "aphelion_distance": "2.283869465217495",
        "perihelion_time": "2459039.839293128126",
        "mean_anomaly": "33.59952549710059",
        "mean_motion": ".4440815700281389",
        "equinox": "J2000",
        "orbit_class": {
            "orbit_class_type": "AMO",
            "orbit_class_description": "Near-Earth asteroid orbits similar to that of 1221 Amor",
            "orbit_class_range": "1.017 AU < q (perihelion) < 1.3 AU"
        }
    },
    "is_sentry_object": false
}